NORAD_CAT_ID,OBJECT_NAME,OBJECT_TYPE,EPOCH,MEAN_MOTION,ECCENTRICITY,INCLINATION,RA_OF_ASC_NODE,ARG_OF_PERICENTER,MEAN_ANOMALY,BSTAR,MEAN_MOTION_DOT,MEAN_MOTION_DDOT,TLE_LINE0,TLE_LINE1,TLE_LINE2,SEMIMAJOR_AXIS,PERIOD,APOGEE,PERIGEE,DECAYED
55928.0,STARLINK-5930,PAYLOAD,2023-04-04 14:00:01,15.6990065,0.0003819,69.9957,130.9873,273.0624,191.0118,0.00027054,0.00032414,0.0,0 STARLINK-5930,1 55928U 23037Q   23094.58334491  .00032414  00000-0  27054-3 0  9994,2 55928  69.9957 130.9873 0003819 273.0624 191.0118 15.69900650  3322,6737.318,91.726,361.756,356.61,0.0
55928.0,STARLINK-5930,PAYLOAD,2023-04-04 22:00:00,15.69888926,0.0003857,69.9965,130.0499,267.8233,279.5772,0.00067839,0.00082047,0.0,0 STARLINK-5930,1 55928U 23037Q   23094.91667824  .00082047  00000-0  67839-3 0  9992,2 55928  69.9965 130.0499 0003857 267.8233 279.5772 15.69888926  1300,6737.352,91.726,361.815,356.618,0.0
55928.0,STARLINK-5930,PAYLOAD,2023-04-05 06:00:00,15.69932237,0.0003717,69.9974,129.1126,270.9414,359.7845,-0.00035425,-0.00042611,0.0,0 STARLINK-5930,1 55928U 23037Q   23095.25001157 -.00042611  00000-0 -35425-3 0  9992,2 55928  69.9974 129.1126 0003717 270.9414 359.7845 15.69932237  3430,6737.228,91.724,361.597,356.589,0.0
55928.0,STARLINK-5930,PAYLOAD,2023-04-05 14:00:01,15.69939937,0.0003638,69.9976,128.1752,274.5729,79.4893,-0.00013567,-0.00016506,0.0,0 STARLINK-5930,1 55928U 23037Q   23095.58334491 -.00016506  00000-0 -13567-3 0  9995,2 55928  69.9976 128.1752 0003638 274.5729  79.4893 15.69939937  1304,6737.206,91.723,361.522,356.62,0.0
55928.0,STARLINK-5930,PAYLOAD,2023-04-05 16:00:00,15.6997568,0.000355,69.9979,127.9409,272.8234,192.0667,-0.00087921,-0.00104851,0.0,0 STARLINK-5930,1 55928U 23037Q   23095.66667824 -.00104851  00000-0 -87921-3 0  9999,2 55928  69.9979 127.9409 0003550 272.8234 192.0667 15.69975680  3496,6737.104,91.721,361.36,356.577,0.0
55928.0,STARLINK-5930,PAYLOAD,2023-04-05 22:00:00,15.69848262,0.000361,69.9977,127.2379,265.442,171.9903,0.0011526,0.00140283,0.0,0 STARLINK-5930,1 55928U 23037Q   23095.91667824  .00140283  00000-0  11526-2 0  9991,2 55928  69.9977 127.2379 0003610 265.4420 171.9903 15.69848262  1307,6737.468,91.729,361.765,356.901,0.0
55928.0,STARLINK-5930,PAYLOAD,2023-04-06 10:00:00,15.69892107,0.0003591,69.9989,125.832,273.0333,109.3827,0.00048789,0.00058788,0.0,0 STARLINK-5930,1 55928U 23037Q   23096.41667824  .00058788  00000-0  48789-3 0  9997,2 55928  69.9989 125.8320 0003591 273.0333 109.3827 15.69892107  3619,6737.343,91.726,361.627,356.788,0.0
55928.0,STARLINK-5930,PAYLOAD,2023-04-06 14:00:01,15.69928919,0.0003668,69.9988,125.3632,273.5125,330.6153,6.1765e-05,7.222e-05,0.0,0 STARLINK-5930,1 55928U 23037Q   23096.58335648  .00007222  00000-0  61765-4 0  9998,2 55928  69.9988 125.3632 0003668 273.5125 330.6153 15.69928919  1304,6737.237,91.724,361.574,356.631,0.0
55928.0,STARLINK-5930,PAYLOAD,2023-04-06 22:00:00,15.69905437,0.0003595,69.9992,124.4261,267.4904,59.9394,0.00024812,0.00029705,0.0,0 STARLINK-5930,1 55928U 23037Q   23096.91667824  .00029705  00000-0  24812-3 0  9990,2 55928  69.9992 124.4261 0003595 267.4904  59.9394 15.69905437  1301,6737.305,91.725,361.592,356.747,0.0
55928.0,STARLINK-5930,PAYLOAD,2023-04-07 14:00:01,15.69975661,0.0003494,69.9995,122.5518,274.0823,219.9774,-0.00061367,-0.00073518,0.0,0 STARLINK-5930,1 55928U 23037Q   23097.58334491 -.00073518  00000-0 -61367-3 0  9994,2 55928  69.9995 122.5518 0003494 274.0823 219.9774 15.69975661  3791,6737.104,91.721,361.323,356.615,0.0
55928.0,STARLINK-5930,PAYLOAD,2023-04-08 04:43:23,15.69927716,0.0004644,69.9985,120.8275,280.7148,79.3525,0.00010874,0.00012887,0.0,0 STARLINK-5930,1 55928U 23037Q   23098.19679706  .00012887  00000-0  10874-3 0  9990,2 55928  69.9985 120.8275 0004644 280.7148  79.3525 15.69927716  3894,6737.241,91.724,362.235,355.977,0.0
55928.0,STARLINK-5930,PAYLOAD,2023-04-08 10:50:23,15.6993662,0.000399,69.9984,120.1107,271.9857,88.0881,0.00023825,0.0002855,0.0,0 STARLINK-5930,1 55928U 23037Q   23098.45166194  .00028550  00000-0  23825-3 0  9995,2 55928  69.9984 120.1107 0003990 271.9857  88.0881 15.69936620  3595,6737.215,91.723,361.768,356.392,0.0
55928.0,STARLINK-5930,PAYLOAD,2023-04-08 13:53:53,15.69937899,0.0003522,69.9988,119.7526,266.3036,93.7757,0.00025152,0.00030157,0.0,0 STARLINK-5930,1 55928U 23037Q   23098.57909562  .00030157  00000-0  25152-3 0  9993,2 55928  69.9988 119.7526 0003522 266.3036  93.7757 15.69937899  3950,6737.212,91.723,361.45,356.704,0.0
55928.0,STARLINK-5930,PAYLOAD,2023-04-09 03:39:40,15.69937831,0.0003391,69.9991,118.1402,264.9179,95.1629,0.00015606,0.00018604,0.0,0 STARLINK-5930,1 55928U 23037Q   23099.15254672  .00018604  00000-0  15606-3 0  9999,2 55928  69.9991 118.1402 0003391 264.9179  95.1629 15.69937831  4047,6737.212,91.723,361.361,356.792,0.0
55928.0,STARLINK-5930,PAYLOAD,2023-04-09 11:18:26,15.69919902,0.0002943,70.0008,117.2442,275.1303,84.9556,5.579e-05,6.499e-05,0.0,0 STARLINK-5930,1 55928U 23037Q   23099.47113499  .00006499  00000-0  55790-4 0  9993,2 55928  70.0008 117.2442 0002943 275.1303  84.9556 15.69919902  4097,6737.263,91.724,361.111,357.145,0.0
55928.0,STARLINK-5930,PAYLOAD,2023-04-09 12:50:11,15.69924823,0.0003063,70.0008,117.0653,274.4317,85.6529,8.1838e-05,9.639e-05,0.0,0 STARLINK-5930,1 55928U 23037Q   23099.53485087  .00009639  00000-0  81838-4 0  9996,2 55928  70.0008 117.0653 0003063 274.4317  85.6529 15.69924823  3769,6737.249,91.724,361.178,357.05,0.0
55928.0,STARLINK-5930,PAYLOAD,2023-04-10 04:07:41,15.69941629,0.0003814,69.9996,115.2736,266.8115,93.2644,0.00019403,0.00023201,0.0,0 STARLINK-5930,1 55928U 23037Q   23100.17201174  .00023201  00000-0  19403-3 0  9991,2 55928  69.9996 115.2736 0003814 266.8115  93.2644 15.69941629  4205,6737.201,91.723,361.636,356.496,0.0
55928.0,STARLINK-5930,PAYLOAD,2023-04-10 13:18:12,15.69932717,0.0004144,70.0006,114.1993,274.4668,85.6055,9.6468e-05,0.00011408,0.0,0 STARLINK-5930,1 55928U 23037Q   23100.55431258  .00011408  00000-0  96468-4 0  9994,2 55928  70.0006 114.1993 0004144 274.4668  85.6055 15.69932717  4263,6737.226,91.724,361.883,356.3,0.0
55928.0,STARLINK-5930,PAYLOAD,2023-04-10 17:53:27,15.69933217,0.000388,70.0004,113.6627,266.6239,93.4512,5.3141e-05,6.184e-05,0.0,0 STARLINK-5930,1 55928U 23037Q   23100.74546124  .00006184  00000-0  53141-4 0  9990,2 55928  70.0004 113.6627 0003880 266.6239  93.4512 15.69933217  3958,6737.225,91.724,361.704,356.476,0.0
55928.0,STARLINK-5930,PAYLOAD,2023-04-11 10:42:49,15.69805705,0.00027,70.0011,111.6919,268.3015,91.7871,-0.00021809,-0.00026223,0.0,0 STARLINK-5930,1 55928U 23037Q   23101.44640868 -.00026223  00000-0 -21809-3 0  9991,2 55928  70.0011 111.6919 0002700 268.3015  91.7871 15.69805705  4061,6737.59,91.731,361.274,357.636,0.0
55928.0,STARLINK-5930,PAYLOAD,2023-04-11 18:21:48,15.69572938,0.0001986,69.9996,110.7968,280.2336,79.8635,-0.00061778,-0.00072775,0.0,0 STARLINK-5930,1 55928U 23037Q   23101.76514176 -.00072775  00000-0 -61778-3 0  9990,2 55928  69.9996 110.7968 0001986 280.2336  79.8635 15.69572938  4118,6738.256,91.745,361.459,358.783,0.0
55928.0,STARLINK-5930,PAYLOAD,2023-04-12 14:00:01,15.6757069,0.0003375,70.0007,108.5004,270.9096,27.96,-0.0097355,-0.00964355,0.0,0 STARLINK-5930,1 55928U 23037Q   23102.58334491 -.00964355  00000-0 -97355-2 0  9994,2 55928  70.0007 108.5004 0003375 270.9096  27.9600 15.67570690  4581,6743.993,91.862,368.134,363.582,0.0
55928.0,STARLINK-5930,PAYLOAD,2023-04-13 12:00:00,15.65755008,0.0003583,70.0003,105.936,275.9016,151.3187,-0.0099943,-0.00923707,0.0,0 STARLINK-5930,1 55928U 23037Q   23103.50001157 -.00923707  00000-0 -99943-2 0  9998,2 55928  70.0003 105.9360 0003583 275.9016 151.3187 15.65755008  1306,6749.205,91.968,373.488,368.652,0.0
55928.0,STARLINK-5930,PAYLOAD,2023-04-14 14:00:01,15.63655837,0.0003655,70.0003,102.9137,273.3678,134.3246,-0.011351,-0.00961115,0.0,0 STARLINK-5930,1 55928U 23037Q   23104.58335648 -.00961115  00000-0 -11351-1 0  9993,2 55928  70.0003 102.9137 0003655 273.3678 134.3246 15.63655837  1305,6755.244,92.092,379.578,374.64,0.0
55928.0,STARLINK-5930,PAYLOAD,2023-04-14 18:00:00,15.63270945,0.0003531,70.0005,102.4497,267.5394,357.9007,-0.010318,-0.00868791,0.0,0 STARLINK-5930,1 55928U 23037Q   23104.75001157 -.00868791  00000-0 -10318-1 0  9995,2 55928  70.0005 102.4497 0003531 267.5394 357.9007 15.63270945  4926,6756.353,92.115,380.604,375.832,0.0
55928.0,STARLINK-5930,PAYLOAD,2023-04-15 08:00:01,15.62127084,0.000356,70.0001,100.8273,270.9043,35.2642,-0.010617,-0.00855938,0.0,0 STARLINK-5930,1 55928U 23037Q   23105.33334491 -.00855938  00000-0 -10617-1 0  9991,2 55928  70.0001 100.8273 0003560 270.9043  35.2642 15.62127084  5013,6759.651,92.182,383.922,379.109,0.0
55928.0,STARLINK-5930,PAYLOAD,2023-04-15 14:00:01,15.61706625,0.0003464,69.9997,100.1325,269.4839,1.9607,-0.012483,-0.009774,0.0,0 STARLINK-5930,1 55928U 23037Q   23105.58334491 -.00977400  00000-0 -12483-1 0  9990,2 55928  69.9997 100.1325 0003464 269.4839   1.9607 15.61706625  1306,6760.864,92.207,385.071,380.387,0.0
55928.0,STARLINK-5930,PAYLOAD,2023-04-15 22:00:01,15.61018634,0.0003896,69.9999,99.2072,264.4722,80.0806,-0.011671,-0.0089748,0.0,0 STARLINK-5930,1 55928U 23037Q   23105.91668981 -.00897480  00000-0 -11671-1 0  9998,2 55928  69.9999  99.2072 0003896 264.4722  80.0806 15.61018634  1305,6762.85,92.247,387.35,382.081,0.0
55928.0,STARLINK-5930,PAYLOAD,2023-04-16 00:00:00,15.60895128,0.0003707,70.0001,98.9759,265.5339,187.0808,-0.012684,-0.0096386,0.0,0 STARLINK-5930,1 55928U 23037Q   23106.00001157 -.00963860  00000-0 -12684-1 0  9996,2 55928  70.0001  98.9759 0003707 265.5339 187.0808 15.60895128  5110,6763.207,92.255,387.579,382.565,0.0
55928.0,STARLINK-5930,PAYLOAD,2023-04-16 10:00:00,15.60031532,0.0003384,70.0,97.8207,270.7902,1.8011,-0.012039,-0.00891606,0.0,0 STARLINK-5930,1 55928U 23037Q   23106.41667824 -.00891606  00000-0 -12039-1 0  9992,2 55928  70.0000  97.8207 0003384 270.7902   1.8011 15.60031532  1307,6765.703,92.306,389.857,385.278,0.0
